Total gap duration: 6 days, 23:16:57.185722
STARLINK-31197
1 58859U 24019G   24101.40691569  .00007313  00000+0  28902-3 0  9996
2 58859  43.0031 226.0534 0001195 251.0042 109.0679 15.25922686 12360
Total gap duration: 6 days, 22:31:39.137860
STARLINK-1536
1 46070U 20055AV  24101.38256336  .00000630  00000+0  61183-4 0  9994
2 46070  53.0552 351.4407 0001358  82.5884 277.5259 15.06400854203527
Total gap duration: 6 days, 22:34:17.891092
STARLINK-4793
1 53867U 22114BB  24101.46937292 -.00007710  00000+0 -46717-3 0  9993
2 53867  53.2159 168.6147 0001565  90.0178 270.0993 15.08812217 87304
Total gap duration: 6 days, 22:33:28.425462
STARLINK-3559
1 51860U 22022J   24100.89573234  .00000832  00000+0  70377-4 0  9996
2 51860  53.2165 266.1271 0001383  82.9886 277.1263 15.08838203117628
Total gap duration: 6 days, 22:33:38.927557
STARLINK-3603
1 51816U 22017BA  24100.74952428  .00000228  00000+0  32446-4 0  9995
2 51816  53.2182 227.0245 0001568  94.8814 265.2357 15.08836920118619
Total gap duration: 6 days, 22:33:04.077129
STARLINK-4671
1 53593U 22104F   24101.51996129 -.00000428  00000+0 -88305-5 0  9998
2 53593  53.2167 138.4137 0001453  87.4405 272.6753 15.08840386 89528
Total gap duration: 6 days, 22:33:19.560089
STARLINK-5067
1 55653U 23021AB  24101.23439929 -.00000097  00000+0 -34272-6 0  9992
2 55653  69.9996 145.3490 0003004 265.4029  94.6786 14.98333123 63876
Total gap duration: 6 days, 22:34:31.818840
STARLINK-5670
1 55341U 23013L   24101.18549713 -.00000747  00000+0 -40203-4 0  9995
2 55341  43.0029 136.0353 0001574 290.6059  69.4614 15.02526998 67063
Total gap duration: 6 days, 22:25:20.338066
STARLINK-30798
1 58196U 23167X   24100.96938863  .00081271  00000+0  60283-2 0  9996
2 58196  43.0041 343.0843 0001603 277.6148  82.4512 15.02117080 25793
Total gap duration: 6 days, 22:23:58.555652
STARLINK-4633
1 53964U 22125A   24101.21268884  .00001605  00000+0  11892-3 0  9991
2 53964  53.2164 119.8558 0001363  91.3147 268.8002 15.08841608 83946
Total gap duration: 6 days, 22:34:43.916742
